{
  "norad_id": 57203,
  "name": "UTMN 2 (RS27S)",
  "history": [
    {
      "epoch": "2026-03-28T22:24:53.689536Z",
      "apogee_km": 481.2819112533598,
      "perigee_km": 470.1079719623185,
      "latitude_deg": -3.2412890231212336e-05,
      "longitude_deg": -8.433585884255127,
      "height_km": 473.3880331810802,
      "semi_major_axis_km": 6853.831941607839,
      "eccentricity": 0.00081516,
      "inclination_deg": 97.5165,
      "raan_deg": 154.1374,
      "arg_perigee_deg": 14.7408,
      "mean_anomaly_deg": 345.4068,
      "mean_motion_rev_day": 15.30039297
    },
    {
      "epoch": "2026-03-29T03:07:25.245984Z",
      "apogee_km": 481.25697423217935,
      "perigee_km": 470.08389735035234,
      "latitude_deg": -1.040678261766383e-05,
      "longitude_deg": -79.060156066349,
      "height_km": 473.3484082332083,
      "semi_major_axis_km": 6853.807435791266,
      "eccentricity": 0.0008151,
      "inclination_deg": 97.5165,
      "raan_deg": 154.3357,
      "arg_perigee_deg": 14.0942,
      "mean_anomaly_deg": 346.0524,
      "mean_motion_rev_day": 15.30047503
    },
    {
      "epoch": "2026-03-30T04:14:12.072768Z",
      "apogee_km": 481.0848555441762,
      "perigee_km": 470.00656281305874,
      "latitude_deg": 3.202547353012196e-05,
      "longitude_deg": -95.72822715597572,
      "height_km": 473.19680757163115,
      "semi_major_axis_km": 6853.682709178617,
      "eccentricity": 0.0008082,
      "inclination_deg": 97.5163,
      "raan_deg": 155.3941,
      "arg_perigee_deg": 10.5129,
      "mean_anomaly_deg": 349.6279,
      "mean_motion_rev_day": 15.3008927
    },
    {
      "epoch": "2026-03-30T04:14:12.073632Z",
      "apogee_km": 481.0845813968681,
      "perigee_km": 470.00683696036776,
      "latitude_deg": 3.288899575573744e-05,
      "longitude_deg": -95.72823087913318,
      "height_km": 473.19707717227055,
      "semi_major_axis_km": 6853.682709178617,
      "eccentricity": 0.00080816,
      "inclination_deg": 97.5163,
      "raan_deg": 155.3941,
      "arg_perigee_deg": 10.5129,
      "mean_anomaly_deg": 349.6279,
      "mean_motion_rev_day": 15.3008927
    },
    {
      "epoch": "2026-03-30T13:39:14.020992Z",
      "apogee_km": 480.99220096495446,
      "perigee_km": 470.00787688267155,
      "latitude_deg": 1.304998451866167e-06,
      "longitude_deg": 123.02400874501136,
      "height_km": 473.173726730549,
      "semi_major_axis_km": 6853.637038923813,
      "eccentricity": 0.00080135,
      "inclination_deg": 97.5162,
      "raan_deg": 155.7912,
      "arg_perigee_deg": 9.0383,
      "mean_anomaly_deg": 351.1,
      "mean_motion_rev_day": 15.30104564
    },
    {
      "epoch": "2026-03-30T21:30:05.404032Z",
      "apogee_km": 480.9318008371092,
      "perigee_km": 469.99715382408795,
      "latitude_deg": -2.8796241806199467e-05,
      "longitude_deg": 5.318527329718361,
      "height_km": 473.1460901516759,
      "semi_major_axis_km": 6853.601477330599,
      "eccentricity": 0.00079773,
      "inclination_deg": 97.5162,
      "raan_deg": 156.1221,
      "arg_perigee_deg": 7.8301,
      "mean_anomaly_deg": 352.3062,
      "mean_motion_rev_day": 15.30116473
    },
    {
      "epoch": "2026-03-31T21:02:38.353920Z",
      "apogee_km": 480.76708506085015,
      "perigee_km": 469.968702750014,
      "latitude_deg": 2.257618629470726e-05,
      "longitude_deg": 12.207175192958712,
      "height_km": 473.0811272585186,
      "semi_major_axis_km": 6853.504893905432,
      "eccentricity": 0.0007878,
      "inclination_deg": 97.5159,
      "raan_deg": 157.1149,
      "arg_perigee_deg": 4.0629,
      "mean_anomaly_deg": 356.0674,
      "mean_motion_rev_day": 15.30148818
    },
    {
      "epoch": "2026-04-01T20:35:09.523968Z",
      "apogee_km": 480.5868260502657,
      "perigee_km": 469.96403678157094,
      "latitude_deg": 2.0132335535890406e-05,
      "longitude_deg": 19.102866300969165,
      "height_km": 473.0639190985415,
      "semi_major_axis_km": 6853.412431415918,
      "eccentricity": 0.000775,
      "inclination_deg": 97.5155,
      "raan_deg": 158.1073,
      "arg_perigee_deg": 0.5107,
      "mean_anomaly_deg": 359.614,
      "mean_motion_rev_day": 15.30179784
    },
    {
      "epoch": "2026-04-02T20:07:38.635104Z",
      "apogee_km": 480.4002413220087,
      "perigee_km": 469.868134160688,
      "latitude_deg": -2.348571593717245e-05,
      "longitude_deg": 26.006964628959512,
      "height_km": 472.9763450769857,
      "semi_major_axis_km": 6853.2711877413485,
      "eccentricity": 0.0007684,
      "inclination_deg": 97.5151,
      "raan_deg": 159.0995,
      "arg_perigee_deg": 356.8933,
      "mean_anomaly_deg": 3.2258,
      "mean_motion_rev_day": 15.30227089
    },
    {
      "epoch": "2026-04-02T21:41:48.495264Z",
      "apogee_km": 480.3849994205457,
      "perigee_km": 469.8678443080844,
      "latitude_deg": 4.0416435542531844e-05,
      "longitude_deg": 2.467919093574656,
      "height_km": 472.97663047851216,
      "semi_major_axis_km": 6853.263421864314,
      "eccentricity": 0.00076731,
      "inclination_deg": 97.515,
      "raan_deg": 159.166,
      "arg_perigee_deg": 356.7816,
      "mean_anomaly_deg": 3.3374,
      "mean_motion_rev_day": 15.3022969
    },
    {
      "epoch": "2026-04-03T19:40:05.064384Z",
      "apogee_km": 480.19046180707574,
      "perigee_km": 469.79426456312285,
      "latitude_deg": 8.673179237759685e-06,
      "longitude_deg": 32.92295730020368,
      "height_km": 472.9359450552068,
      "semi_major_axis_km": 6853.129363185099,
      "eccentricity": 0.0007585,
      "inclination_deg": 97.5146,
      "raan_deg": 160.0924,
      "arg_perigee_deg": 352.8537,
      "mean_anomaly_deg": 7.2594,
      "mean_motion_rev_day": 15.30274591
    },
    {
      "epoch": "2026-04-04T20:46:38.448192Z",
      "apogee_km": 479.9944270996775,
      "perigee_km": 469.7409614760827,
      "latitude_deg": 2.843982581135804e-05,
      "longitude_deg": 16.31145345946288,
      "height_km": 472.93935541449173,
      "semi_major_axis_km": 6853.00469428788,
      "eccentricity": 0.0007481,
      "inclination_deg": 97.5143,
      "raan_deg": 161.1512,
      "arg_perigee_deg": 348.8747,
      "mean_anomaly_deg": 11.2327,
      "mean_motion_rev_day": 15.30316349
    },
    {
      "epoch": "2026-04-05T14:02:22.578720Z",
      "apogee_km": 479.88982836222203,
      "perigee_km": 469.69458852023854,
      "latitude_deg": -6.675008638240411e-05,
      "longitude_deg": 117.39635180569819,
      "height_km": 472.9460352493083,
      "semi_major_axis_km": 6852.92920844123,
      "eccentricity": 0.00074386,
      "inclination_deg": 97.5141,
      "raan_deg": 161.8789,
      "arg_perigee_deg": 346.1177,
      "mean_anomaly_deg": 13.9857,
      "mean_motion_rev_day": 15.30341634
    },
    {
      "epoch": "2026-04-05T20:19:00.200640Z",
      "apogee_km": 479.8420625656636,
      "perigee_km": 469.692911020722,
      "latitude_deg": -2.8534141504206774e-05,
      "longitude_deg": 23.24649628118049,
      "height_km": 472.9658171097201,
      "semi_major_axis_km": 6852.9044867931925,
      "eccentricity": 0.0007405,
      "inclination_deg": 97.5141,
      "raan_deg": 162.1436,
      "arg_perigee_deg": 345.1189,
      "mean_anomaly_deg": 14.9832,
      "mean_motion_rev_day": 15.30349915
    },
    {
      "epoch": "2026-04-06T05:43:56.426592Z",
      "apogee_km": 479.77697770645864,
      "perigee_km": 469.6821570234051,
      "latitude_deg": 9.062591759438572e-05,
      "longitude_deg": -117.97758072089738,
      "height_km": 472.99018628663913,
      "semi_major_axis_km": 6852.866567364932,
      "eccentricity": 0.00073654,
      "inclination_deg": 97.514,
      "raan_deg": 162.5405,
      "arg_perigee_deg": 343.611,
      "mean_anomaly_deg": 16.4892,
      "mean_motion_rev_day": 15.30362617
    },
    {
      "epoch": "2026-04-07T14:41:11.311008Z",
      "apogee_km": 479.61010918824286,
      "perigee_km": 469.63413656752255,
      "latitude_deg": -3.685750916075107e-05,
      "longitude_deg": 107.74673570204263,
      "height_km": 473.09998736002876,
      "semi_major_axis_km": 6852.759122877883,
      "eccentricity": 0.00072788,
      "inclination_deg": 97.5138,
      "raan_deg": 163.9302,
      "arg_perigee_deg": 338.0355,
      "mean_anomaly_deg": 22.0572,
      "mean_motion_rev_day": 15.30398609
    },
    {
      "epoch": "2026-04-07T20:57:48.111264Z",
      "apogee_km": 479.5673559781426,
      "perigee_km": 469.63773637573286,
      "latitude_deg": -1.026856490736056e-05,
      "longitude_deg": 13.600314377887035,
      "height_km": 473.1360314082149,
      "semi_major_axis_km": 6852.739546176937,
      "eccentricity": 0.0007245,
      "inclination_deg": 97.5138,
      "raan_deg": 164.1949,
      "arg_perigee_deg": 337.0095,
      "mean_anomaly_deg": 23.082,
      "mean_motion_rev_day": 15.30405167
    },
    {
      "epoch": "2026-04-08T14:13:28.816896Z",
      "apogee_km": 479.4743305950806,
      "perigee_km": 469.62537494280605,
      "latitude_deg": -3.6095323124723787e-06,
      "longitude_deg": 114.69980780935495,
      "height_km": 473.2205224544876,
      "semi_major_axis_km": 6852.686852768943,
      "eccentricity": 0.00071862,
      "inclination_deg": 97.5137,
      "raan_deg": 164.9229,
      "arg_perigee_deg": 334.2012,
      "mean_anomaly_deg": 25.8869,
      "mean_motion_rev_day": 15.30422819
    },
    {
      "epoch": "2026-04-09T20:02:21.055488Z",
      "apogee_km": 479.32237989700934,
      "perigee_km": 469.59580500338507,
      "latitude_deg": -4.560213721469629e-05,
      "longitude_deg": 27.514910384185864,
      "height_km": 473.3853833143473,
      "semi_major_axis_km": 6852.596092450197,
      "eccentricity": 0.0007097,
      "inclination_deg": 97.5137,
      "raan_deg": 166.1801,
      "arg_perigee_deg": 329.2292,
      "mean_anomaly_deg": 30.8531,
      "mean_motion_rev_day": 15.30453224
    }
  ]
}